FLOCK 4G-27             
1 62641U 25009AJ  26068.75406453  .00012587  00000+0  47455-3 0  9991
2 62641  97.3976 150.8631 0000756 322.4974  37.6212 15.27199247 63710
STARLINK-36145          
1 66983U 25288AA  26068.28360458  .00028845  00000+0  10532-2 0  9994
2 66983  43.0036  25.8836 0001682 255.2331 104.8334 15.27593375 15220
